[{"OBJECT_NAME":"RADUGA 1 [-]","OBJECT_ID":"1975-123A","EPOCH":"2022-08-18T20:45:38.611872","MEAN_MOTION":1.00264779,"ECCENTRICITY":0.0008439,"INCLINATION":6.3949,"RA_OF_ASC_NODE":287.7032,"ARG_OF_PERICENTER":214.3132,"MEAN_ANOMALY":201.2126,"EPHEMERIS_TYPE":0,"CLASSIFICATION_TYPE":"U","NORAD_CAT_ID":8513,"ELEMENT_SET_NO":999,"REV_AT_EPOCH":18079,"BSTAR":0,"MEAN_MOTION_DOT":9.0e-8,"MEAN_MOTION_DDOT":0},{"OBJECT_NAME":"RADUGA 2 [-]","OBJECT_ID":"1976-092A","EPOCH":"2022-08-18T20:34:50.484000","MEAN_MOTION":1.00298694,"ECCENTRICITY":0.0025516,"INCLINATION":7.0576,"RA_OF_ASC_NODE":289.6837,"ARG_OF_PERICENTER":357.7824,"MEAN_ANOMALY":62.7996,"EPHEMERIS_TYPE":0,"CLASSIFICATION_TYPE":"U","NORAD_CAT_ID":9416,"ELEMENT_SET_NO":999,"REV_AT_EPOCH":11532,"BSTAR":0,"MEAN_MOTION_DOT":-8.9e-7,"MEAN_MOTION_DDOT":0},{"OBJECT_NAME":"RADUGA 3 [-]","OBJECT_ID":"1977-071A","EPOCH":"2022-08-18T19:44:29.381856","MEAN_MOTION":1.00224449,"ECCENTRICITY":0.0009853,"INCLINATION":7.6727,"RA_OF_ASC_NODE":292.2673,"ARG_OF_PERICENTER":231.4594,"MEAN_ANOMALY":205.9312,"EPHEMERIS_TYPE":0,"CLASSIFICATION_TYPE":"U","NORAD_CAT_ID":10159,"ELEMENT_SET_NO":999,"REV_AT_EPOCH":16302,"BSTAR":0,"MEAN_MOTION_DOT":-3.32e-6,"MEAN_MOTION_DDOT":0},{"OBJECT_NAME":"RADUGA 4 [-]","OBJECT_ID":"1978-073A","EPOCH":"2022-08-18T20:32:40.725888","MEAN_MOTION":1.0027987,"ECCENTRICITY":0.0007276,"INCLINATION":8.2961,"RA_OF_ASC_NODE":295.7616,"ARG_OF_PERICENTER":357.8761,"MEAN_ANOMALY":19.6254,"EPHEMERIS_TYPE":0,"CLASSIFICATION_TYPE":"U","NORAD_CAT_ID":10987,"ELEMENT_SET_NO":999,"REV_AT_EPOCH":10558,"BSTAR":0,"MEAN_MOTION_DOT":1.49e-6,"MEAN_MOTION_DDOT":0},{"OBJECT_NAME":"RADUGA 5 [-]","OBJECT_ID":"1979-035A","EPOCH":"2022-08-18T20:50:04.636608","MEAN_MOTION":1.00267952,"ECCENTRICITY":0.0007378,"INCLINATION":8.7545,"RA_OF_ASC_NODE":298.5061,"ARG_OF_PERICENTER":173.0366,"MEAN_ANOMALY":253.663,"EPHEMERIS_TYPE":0,"CLASSIFICATION_TYPE":"U","NORAD_CAT_ID":11343,"ELEMENT_SET_NO":999,"REV_AT_EPOCH":11533,"BSTAR":0,"MEAN_MOTION_DOT":-1.89e-6,"MEAN_MOTION_DDOT":0},{"OBJECT_NAME":"RADUGA 6 [-]","OBJECT_ID":"1980-016A","EPOCH":"2022-08-18T19:06:21.894336","MEAN_MOTION":1.00333771,"ECCENTRICITY":0.0003694,"INCLINATION":9.1133,"RA_OF_ASC_NODE":301.5624,"ARG_OF_PERICENTER":196.1145,"MEAN_ANOMALY":174.5633,"EPHEMERIS_TYPE":0,"CLASSIFICATION_TYPE":"U","NORAD_CAT_ID":11708,"ELEMENT_SET_NO":999,"REV_AT_EPOCH":10814,"BSTAR":0,"MEAN_MOTION_DOT":4.4e-7,"MEAN_MOTION_DDOT":0},{"OBJECT_NAME":"RADUGA 7 [-]","OBJECT_ID":"1980-081A","EPOCH":"2022-08-19T01:34:32.788992","MEAN_MOTION":1.00293248,"ECCENTRICITY":0.0009886,"INCLINATION":9.2961,"RA_OF_ASC_NODE":303.4998,"ARG_OF_PERICENTER":255.643,"MEAN_ANOMALY":123.0164,"EPHEMERIS_TYPE":0,"CLASSIFICATION_TYPE":"U","NORAD_CAT_ID":12003,"ELEMENT_SET_NO":999,"REV_AT_EPOCH":10940,"BSTAR":0,"MEAN_MOTION_DOT":-2.09e-6,"MEAN_MOTION_DDOT":0},{"OBJECT_NAME":"RADUGA 8 [-]","OBJECT_ID":"1981-027A","EPOCH":"2022-08-18T20:59:53.163168","MEAN_MOTION":1.00414031,"ECCENTRICITY":0.0083153,"INCLINATION":9.6276,"RA_OF_ASC_NODE":304.0947,"ARG_OF_PERICENTER":228.4205,"MEAN_ANOMALY":201.7197,"EPHEMERIS_TYPE":0,"CLASSIFICATION_TYPE":"U","NORAD_CAT_ID":12351,"ELEMENT_SET_NO":999,"REV_AT_EPOCH":10851,"BSTAR":0,"MEAN_MOTION_DOT":-2.73e-6,"MEAN_MOTION_DDOT":0},{"OBJECT_NAME":"RADUGA 9 [-]","OBJECT_ID":"1981-069A","EPOCH":"2022-08-18T20:18:42.882624","MEAN_MOTION":1.00335956,"ECCENTRICITY":0.0004962,"INCLINATION":9.8454,"RA_OF_ASC_NODE":307.0372,"ARG_OF_PERICENTER":160.5,"MEAN_ANOMALY":214.6316,"EPHEMERIS_TYPE":0,"CLASSIFICATION_TYPE":"U","NORAD_CAT_ID":12618,"ELEMENT_SET_NO":999,"REV_AT_EPOCH":3332,"BSTAR":0,"MEAN_MOTION_DOT":9.8e-7,"MEAN_MOTION_DDOT":0},{"OBJECT_NAME":"RADUGA 10 [-]","OBJECT_ID":"1981-102A","EPOCH":"2022-08-18T20:47:25.041120","MEAN_MOTION":1.00289114,"ECCENTRICITY":0.0006844,"INCLINATION":9.9305,"RA_OF_ASC_NODE":308.0096,"ARG_OF_PERICENTER":177.3988,"MEAN_ANOMALY":236.1067,"EPHEMERIS_TYPE":0,"CLASSIFICATION_TYPE":"U","NORAD_CAT_ID":12897,"ELEMENT_SET_NO":999,"REV_AT_EPOCH":10332,"BSTAR":0,"MEAN_MOTION_DOT":-1.67e-6,"MEAN_MOTION_DDOT":0},{"OBJECT_NAME":"RADUGA 11 [-]","OBJECT_ID":"1982-113A","EPOCH":"2022-08-18T13:13:00.971616","MEAN_MOTION":0.97710147,"ECCENTRICITY":0.0037941,"INCLINATION":11.9697,"RA_OF_ASC_NODE":321.674,"ARG_OF_PERICENTER":253.0182,"MEAN_ANOMALY":131.1283,"EPHEMERIS_TYPE":0,"CLASSIFICATION_TYPE":"U","NORAD_CAT_ID":13669,"ELEMENT_SET_NO":999,"REV_AT_EPOCH":10787,"BSTAR":0,"MEAN_MOTION_DOT":-1.69e-6,"MEAN_MOTION_DDOT":0},{"OBJECT_NAME":"RADUGA 12 [-]","OBJECT_ID":"1983-028A","EPOCH":"2022-08-18T20:25:27.180192","MEAN_MOTION":1.0028094,"ECCENTRICITY":0.0003989,"INCLINATION":11.069,"RA_OF_ASC_NODE":317.7422,"ARG_OF_PERICENTER":132.9988,"MEAN_ANOMALY":248.5835,"EPHEMERIS_TYPE":0,"CLASSIFICATION_TYPE":"U","NORAD_CAT_ID":13974,"ELEMENT_SET_NO":999,"REV_AT_EPOCH":15536,"BSTAR":0,"MEAN_MOTION_DOT":-1.1e-7,"MEAN_MOTION_DDOT":0},{"OBJECT_NAME":"RADUGA 13 [-]","OBJECT_ID":"1983-088A","EPOCH":"2022-08-18T09:19:42.549888","MEAN_MOTION":0.98172989,"ECCENTRICITY":0.0015127,"INCLINATION":12.2176,"RA_OF_ASC_NODE":323.2235,"ARG_OF_PERICENTER":49.4872,"MEAN_ANOMALY":359.5933,"EPHEMERIS_TYPE":0,"CLASSIFICATION_TYPE":"U","NORAD_CAT_ID":14307,"ELEMENT_SET_NO":999,"REV_AT_EPOCH":10521,"BSTAR":0,"MEAN_MOTION_DOT":-3.1e-7,"MEAN_MOTION_DDOT":0},{"OBJECT_NAME":"RADUGA 14 [-]","OBJECT_ID":"1984-016A","EPOCH":"2022-08-18T20:50:04.651296","MEAN_MOTION":1.00275938,"ECCENTRICITY":0.0006488,"INCLINATION":11.274,"RA_OF_ASC_NODE":321.4905,"ARG_OF_PERICENTER":142.193,"MEAN_ANOMALY":262.609,"EPHEMERIS_TYPE":0,"CLASSIFICATION_TYPE":"U","NORAD_CAT_ID":14725,"ELEMENT_SET_NO":999,"REV_AT_EPOCH":10408,"BSTAR":0,"MEAN_MOTION_DOT":-2.06e-6,"MEAN_MOTION_DDOT":0},{"OBJECT_NAME":"RADUGA 15 [-]","OBJECT_ID":"1984-063A","EPOCH":"2022-08-18T17:27:51.407712","MEAN_MOTION":1.00316679,"ECCENTRICITY":0.0006807,"INCLINATION":11.396,"RA_OF_ASC_NODE":322.4822,"ARG_OF_PERICENTER":157.9847,"MEAN_ANOMALY":231.1062,"EPHEMERIS_TYPE":0,"CLASSIFICATION_TYPE":"U","NORAD_CAT_ID":15057,"ELEMENT_SET_NO":999,"REV_AT_EPOCH":12708,"BSTAR":0,"MEAN_MOTION_DOT":-3.62e-6,"MEAN_MOTION_DDOT":0},{"OBJECT_NAME":"RADUGA 16 [-]","OBJECT_ID":"1985-070A","EPOCH":"2022-08-18T13:23:21.958656","MEAN_MOTION":1.00282126,"ECCENTRICITY":0.0003366,"INCLINATION":11.8553,"RA_OF_ASC_NODE":327.1396,"ARG_OF_PERICENTER":154.7226,"MEAN_ANOMALY":233.8999,"EPHEMERIS_TYPE":0,"CLASSIFICATION_TYPE":"U","NORAD_CAT_ID":15946,"ELEMENT_SET_NO":999,"REV_AT_EPOCH":10819,"BSTAR":0,"MEAN_MOTION_DOT":7.4e-7,"MEAN_MOTION_DDOT":0},{"OBJECT_NAME":"RADUGA 17 [-]","OBJECT_ID":"1985-107A","EPOCH":"2022-08-19T03:27:42.004224","MEAN_MOTION":1.00144018,"ECCENTRICITY":0.0015733,"INCLINATION":11.9772,"RA_OF_ASC_NODE":328.5153,"ARG_OF_PERICENTER":178.6362,"MEAN_ANOMALY":165.5789,"EPHEMERIS_TYPE":0,"CLASSIFICATION_TYPE":"U","NORAD_CAT_ID":16250,"ELEMENT_SET_NO":999,"REV_AT_EPOCH":13779,"BSTAR":0,"MEAN_MOTION_DOT":-2.82e-6,"MEAN_MOTION_DDOT":0}]