RADUGA 1 [-]            
1 08513U 75123A   22230.86503023  .00000009  00000+0  00000+0 0  9998
2 08513   6.3949 287.7032 0008439 214.3132 201.2126  1.00264779180794
RADUGA 2 [-]            
1 09416U 76092A   22230.85752875 -.00000089  00000+0  00000+0 0  9996
2 09416   7.0576 289.6837 0025516 357.7824  62.7996  1.00298694115325
RADUGA 3 [-]            
1 10159U 77071A   22230.82256229 -.00000332  00000+0  00000+0 0  9990
2 10159   7.6727 292.2673 0009853 231.4594 205.9312  1.00224449163021
RADUGA 4 [-]            
1 10987U 78073A   22230.85602692  .00000149  00000+0  00000+0 0  9999
2 10987   8.2961 295.7616 0007276 357.8761  19.6254  1.00279870105588
RADUGA 5 [-]            
1 11343U 79035A   22230.86810922 -.00000189  00000+0  00000+0 0  9998
2 11343   8.7545 298.5061 0007378 173.0366 253.6630  1.00267952115335
RADUGA 6 [-]            
1 11708U 80016A   22230.79608674  .00000044  00000+0  00000+0 0  9994
2 11708   9.1133 301.5624 0003694 196.1145 174.5633  1.00333771108144
RADUGA 7 [-]            
1 12003U 80081A   22231.06565728 -.00000209  00000+0  00000+0 0  9992
2 12003   9.2961 303.4998 0009886 255.6430 123.0164  1.00293248109407
RADUGA 8 [-]            
1 12351U 81027A   22230.87492087 -.00000273  00000+0  00000+0 0  9995
2 12351   9.6276 304.0947 0083153 228.4205 201.7197  1.00414031108510
RADUGA 9 [-]            
1 12618U 81069A   22230.84632966  .00000098  00000+0  00000+0 0  9990
2 12618   9.8454 307.0372 0004962 160.5000 214.6316  1.00335956 33321
RADUGA 10 [-]           
1 12897U 81102A   22230.86626205 -.00000167  00000+0  00000+0 0  9996
2 12897   9.9305 308.0096 0006844 177.3988 236.1067  1.00289114103326
RADUGA 11 [-]           
1 13669U 82113A   22230.55070569 -.00000169  00000+0  00000+0 0  9991
2 13669  11.9697 321.6740 0037941 253.0182 131.1283  0.97710147107876
RADUGA 12 [-]           
1 13974U 83028A   22230.85100903 -.00000011  00000+0  00000+0 0  9991
2 13974  11.0690 317.7422 0003989 132.9988 248.5835  1.00280940155367
RADUGA 13 [-]           
1 14307U 83088A   22230.38868692 -.00000031  00000+0  00000+0 0  9994
2 14307  12.2176 323.2235 0015127  49.4872 359.5933  0.98172989105215
RADUGA 14 [-]           
1 14725U 84016A   22230.86810939 -.00000206  00000+0  00000+0 0  9998
2 14725  11.2740 321.4905 0006488 142.1930 262.6090  1.00275938104089
RADUGA 15 [-]           
1 15057U 84063A   22230.72767833 -.00000362  00000+0  00000+0 0  9991
2 15057  11.3960 322.4822 0006807 157.9847 231.1062  1.00316679127081
RADUGA 16 [-]           
1 15946U 85070A   22230.55789304  .00000074  00000+0  00000+0 0  9994
2 15946  11.8553 327.1396 0003366 154.7226 233.8999  1.00282126108190
RADUGA 17 [-]           
1 16250U 85107A   22231.14423616 -.00000282  00000+0  00000+0 0  9993
2 16250  11.9772 328.5153 0015733 178.6362 165.5789  1.00144018137799
